ONEWEB-0171             
1 48070U 21025AE  25343.10754555  .00000323  00000+0  84848-3 0  9990
2 48070  87.8971 358.0205 0001772  88.0203 272.1129 13.13470934228665
ONEWEB-0172             
1 48071U 21025AF  25343.08722123 -.00000158  00000+0 -46801-3 0  9999
2 48071  87.8990 358.0063 0001709  86.1523 273.9801 13.13471958229555
ONEWEB-0174             
1 48072U 21025AG  25343.29713012 -.00000267  00000+0 -76479-3 0  9995
2 48072  87.8977 357.9687 0001586  94.2070 265.9241 13.13470938228905
ONEWEB-0175             
1 48073U 21025AH  25343.32760714  .00000125  00000+0  30854-3 0  9999
2 48073  87.8984 357.9321 0001950  83.7725 276.3626 13.13471446228564
ONEWEB-0177             
1 48074U 21025AJ  25343.33946271  .00000418  00000+0  11104-2 0  9996
2 48074  87.8987 357.9490 0001530  91.4599 268.6705 13.13471341228751
ONEWEB-0178             
1 48075U 21025AK  25343.28203964  .00000126  00000+0  30915-3 0  9994
2 48075  87.8975 358.0018 0001725  82.5086 277.6239 13.13470416228793
ONEWEB-0108             
1 48076U 21025AL  25343.08892872 -.00000133  00000+0 -39972-3 0  9997
2 48076  87.8984 357.9887 0001808  98.8843 261.2490 13.13471214228693
ONEWEB-0169             
1 48077U 21025AM  25343.12106801 -.00000030  00000+0 -11620-3 0  9999
2 48077  87.8981 358.0031 0001816  99.0932 261.0403 13.13469656227356
